NORAD_CAT_ID,OBJECT_NAME,OBJECT_TYPE,EPOCH,MEAN_MOTION,ECCENTRICITY,INCLINATION,RA_OF_ASC_NODE,ARG_OF_PERICENTER,MEAN_ANOMALY,BSTAR,MEAN_MOTION_DOT,MEAN_MOTION_DDOT,TLE_LINE0,TLE_LINE1,TLE_LINE2,SEMIMAJOR_AXIS,PERIOD,APOGEE,PERIGEE,DECAYED
53252.0,STARLINK-4132,PAYLOAD,2022-12-14 07:39:12,15.08837992,0.0002611,53.2174,97.5125,31.2784,328.8363,5.345600000000001e-05,5.62e-06,0.0,0 STARLINK-4132,1 53252U 22086L   22348.31889198  .00000562  00000-0  53456-4 0  9991,2 53252  53.2174  97.5125 0002611  31.2784 328.8363 15.08837992 22532,6917.887,95.438,541.558,537.945,0.0
53252.0,STARLINK-4132,PAYLOAD,2022-12-14 14:00:44,15.08843791,0.0002577,53.2173,96.3223,36.7598,323.357,5.033e-05,5.13e-06,0.0,0 STARLINK-4132,1 53252U 22086L   22348.58384864  .00000513  00000-0  50330-4 0  9994,2 53252  53.2173  96.3223 0002577  36.7598 323.3570 15.08843791 22771,6917.869000000002,95.437,541.5169999999998,537.951,0.0
53252.0,STARLINK-4132,PAYLOAD,2022-12-14 17:11:30,15.08842501,0.0002543,53.218,95.7285,29.3009,330.8125,7.8871e-05,9.67e-06,0.0,0 STARLINK-4132,1 53252U 22086L   22348.71632865  .00000967  00000-0  78871-4 0  9999,2 53252  53.2180  95.7285 0002543  29.3009 330.8125 15.08842501 22797,6917.873000000001,95.437,541.497,537.979,0.0
53252.0,STARLINK-4132,PAYLOAD,2022-12-15 12:16:09,15.08835435,0.000259,53.218,92.1601,30.5081,329.6061,2.4272e-05,9.8e-07,0.0,0 STARLINK-4132,1 53252U 22086L   22349.51121571  .00000098  00000-0  24272-4 0  9996,2 53252  53.2180  92.1601 0002590  30.5081 329.6061 15.08835435 22711,6917.894,95.438,541.5509999999998,537.9680000000002,0.0
53252.0,STARLINK-4132,PAYLOAD,2022-12-15 18:37:41,15.08841132,0.0002566999999999,53.2174,90.9694,30.9049,329.2094,8.7391e-05,1.103e-05,0.0,0 STARLINK-4132,1 53252U 22086L   22349.77617044  .00001103  00000-0  87391-4 0  9998,2 53252  53.2174  90.9694 0002567  30.9049 329.2094 15.08841132 22953,6917.877,95.437,541.518,537.966,0.0
53252.0,STARLINK-4132,PAYLOAD,2022-12-16 13:42:19,15.08831374,0.0002537,53.218,87.4015,26.3736,333.7385,-2.9486e-05,-7.58e-06,0.0,0 STARLINK-4132,1 53252U 22086L   22350.57106267 -.00000758  00000-0 -29486-4 0  9996,2 53252  53.2180  87.4015 0002537  26.3736 333.7385 15.08831374 22878,6917.906999999997,95.438,541.5269999999998,538.0169999999998,0.0
53252.0,STARLINK-4132,PAYLOAD,2022-12-16 16:53:06,15.08831941,0.0002568,53.218,86.8067,27.3292,332.7835,-2.7211e-05,-7.21e-06,0.0,0 STARLINK-4132,1 53252U 22086L   22350.70354199 -.00000721  00000-0 -27211-4 0  9994,2 53252  53.2180  86.8067 0002568  27.3292 332.7835 15.08831941 23094,6917.905,95.438,541.547,537.994,0.0
53252.0,STARLINK-4132,PAYLOAD,2022-12-16 23:14:38,15.08838348,0.0002594,53.2182,85.6174,27.2711,332.8417,2.0034e-06,-2.57e-06,0.0,0 STARLINK-4132,1 53252U 22086L   22350.96849730 -.00000257  00000-0  20034-5 0  9992,2 53252  53.2182  85.6174 0002594  27.2711 332.8417 15.08838348 22933,6917.885,95.438,541.545,537.956,0.0
53252.0,STARLINK-4132,PAYLOAD,2022-12-17 13:33:06,15.08837249,0.0002578,53.2187,82.94200000000002,28.7364,331.3769999999999,5.6663e-05,6.13e-06,0.0,0 STARLINK-4132,1 53252U 22086L   22351.56465908  .00000613  00000-0  56663-4 0  9991,2 53252  53.2187  82.9420 0002578  28.7364 331.3770 15.08837249 23222,6917.889,95.438,541.5369999999998,537.97,0.0
53252.0,STARLINK-4132,PAYLOAD,2022-12-18 05:26:58,15.08835807,0.0002173,53.2173,79.9666,21.0411,339.06699999999995,3.2111e-05,2.23e-06,0.0,0 STARLINK-4132,1 53252U 22086L   22352.22706171  .00000223  00000-0  32111-4 0  9994,2 53252  53.2173  79.9666 0002173  21.0411 339.0670 15.08835807 23126,6917.893,95.438,541.261,538.255,0.0
53252.0,STARLINK-4132,PAYLOAD,2022-12-18 11:48:31,15.08829362,0.0002706,53.2182,78.7781,25.6181,334.4944,8.6775e-05,1.092e-05,0.0,0 STARLINK-4132,1 53252U 22086L   22352.49202739  .00001092  00000-0  86775-4 0  9994,2 53252  53.2182  78.7781 0002706  25.6181 334.4944 15.08829362 23365,6917.913000000001,95.438,541.65,537.906,0.0
53252.0,STARLINK-4132,PAYLOAD,2022-12-18 13:23:54,15.08828454,0.0002668,53.2178,78.4804,26.7312,333.3818,8.7334e-05,1.101e-05,0.0,0 STARLINK-4132,1 53252U 22086L   22352.55826835  .00001101  00000-0  87334-4 0  9993,2 53252  53.2178  78.4804 0002668  26.7312 333.3818 15.08828454 23176,6917.916,95.438,541.626,537.935,0.0
53252.0,STARLINK-4132,PAYLOAD,2022-12-18 22:56:12,15.08839196,0.0002747,53.2184,76.6965,27.5208,332.5929,8.976600000000001e-05,1.14e-05,0.0,0 STARLINK-4132,1 53252U 22086L   22352.95570326  .00001140  00000-0  89766-4 0  9992,2 53252  53.2184  76.6965 0002747  27.5208 332.5929 15.08839196 23238,6917.8830000000025,95.438,541.648,537.8480000000002,0.0
53252.0,STARLINK-4132,PAYLOAD,2022-12-19 06:53:08,15.0884095,0.0002816,53.2182,75.2092,27.4267,332.6873,0.00014466,2.015e-05,0.0,0 STARLINK-4132,1 53252U 22086L   22353.28690131  .00002015  00000-0  14466-3 0  9992,2 53252  53.2182  75.2092 0002816  27.4267 332.6873 15.08840950 23489,6917.877,95.437,541.691,537.794,0.0
53252.0,STARLINK-4132,PAYLOAD,2022-12-19 13:14:40,15.08846418,0.0002781,53.2182,74.02,26.5892,333.5243,9.2869e-05,1.19e-05,0.0,0 STARLINK-4132,1 53252U 22086L   22353.55185916  .00001190  00000-0  92869-4 0  9999,2 53252  53.2182  74.0200 0002781  26.5892 333.5243 15.08846418 23523,6917.861,95.437,541.65,537.802,0.0
53252.0,STARLINK-4132,PAYLOAD,2022-12-19 22:46:58,15.08861781,0.0002807,53.2183,72.2361,27.8465,332.2677,0.00016657,2.365e-05,0.0,0 STARLINK-4132,1 53252U 22086L   22353.94928433  .00002365  00000-0  16657-3 0  9996,2 53252  53.2183  72.2361 0002807  27.8465 332.2677 15.08861781 23382,6917.814,95.436,541.621,537.737,0.0
53252.0,STARLINK-4132,PAYLOAD,2022-12-20 11:30:03,15.08848527,0.0002794,53.2186,69.8572,27.3897,332.7242,0.00015622,2.199e-05,0.0,0 STARLINK-4132,1 53252U 22086L   22354.47921032  .00002199  00000-0  15622-3 0  9999,2 53252  53.2186  69.8572 0002794  27.3897 332.7242 15.08848527 23465,6917.854,95.437,541.6519999999998,537.786,0.0
53252.0,STARLINK-4132,PAYLOAD,2022-12-21 04:59:19,15.08833638,0.0002714,53.2184,66.5865,26.8501,333.2631,-6.7395e-05,-1.361e-05,0.0,0 STARLINK-4132,1 53252U 22086L   22355.20786393 -.00001361  00000-0 -67395-4 0  9997,2 53252  53.2184  66.5865 0002714  26.8501 333.2631 15.08833638 23577,6917.9,95.438,541.6419999999998,537.887,0.0
53252.0,STARLINK-4132,PAYLOAD,2022-12-21 11:20:52,15.08829321,0.0002737,53.2176,65.3957,24.8582,335.2541,-0.00010276,-1.923e-05,0.0,0 STARLINK-4132,1 53252U 22086L   22355.47282936 -.00001923  00000-0 -10276-3 0  9999,2 53252  53.2176  65.3957 0002737  24.8582 335.2541 15.08829321 23812,6917.913000000001,95.438,541.6709999999998,537.885,0.0
53252.0,STARLINK-4132,PAYLOAD,2022-12-22 09:36:15,15.08845442,0.0002729,53.2182,61.2333,21.0425,339.0679,2.208e-05,6.3e-07,0.0,0 STARLINK-4132,1 53252U 22086L   22356.40017530  .00000063  00000-0  22080-4 0  9998,2 53252  53.2182  61.2333 0002729  21.0425 339.0679 15.08845442 23757,6917.864000000001,95.437,541.617,537.841,0.0
53252.0,STARLINK-4132,PAYLOAD,2022-12-22 14:22:24,15.08849263,0.0002984,53.2186,60.3439,22.9128,337.1997,-2.3471e-05,-6.62e-06,0.0,0 STARLINK-4132,1 53252U 22086L   22356.59889453 -.00000662  00000-0 -23471-4 0  9991,2 53252  53.2186  60.3439 0002984  22.9128 337.1997 15.08849263 23983,6917.852,95.437,541.781,537.653,0.0
53252.0,STARLINK-4132,PAYLOAD,2022-12-23 04:40:53,15.08826851,0.0002692,53.2188,57.6658,23.2795,336.8319,0.00016628,2.358e-05,0.0,0 STARLINK-4132,1 53252U 22086L   22357.19506656  .00002358  00000-0  16628-3 0  9996,2 53252  53.2188  57.6658 0002692  23.2795 336.8319 15.08826851 23877,6917.920999999999,95.438,541.648,537.923,0.0
53252.0,STARLINK-4132,PAYLOAD,2022-12-23 14:13:12,15.08828503,0.0002841,53.2184,55.8817,19.6016,340.5085,0.00016096,2.273e-05,0.0,0 STARLINK-4132,1 53252U 22086L   22357.59250879  .00002273  00000-0  16096-3 0  9998,2 53252  53.2184  55.8817 0002841  19.6016 340.5085 15.08828503 24139,6917.916,95.438,541.746,537.815,0.0
53252.0,STARLINK-4132,PAYLOAD,2022-12-24 10:53:13,15.08844607,0.0002901,53.2193,52.0176,23.5197,336.5927,6.3447e-05,7.21e-06,0.0,0 STARLINK-4132,1 53252U 22086L   22358.45362627  .00000721  00000-0  63447-4 0  9998,2 53252  53.2193  52.0176 0002901  23.5197 336.5927 15.08844607 24264,6917.866,95.437,541.738,537.724,0.0
53252.0,STARLINK-4132,PAYLOAD,2022-12-24 12:28:36,15.08842493,0.0002909,53.2193,51.7206,23.5241,336.5884,4.7397e-05,4.66e-06,0.0,0 STARLINK-4132,1 53252U 22086L   22358.51986796  .00000466  00000-0  47397-4 0  9996,2 53252  53.2193  51.7206 0002909  23.5241 336.5884 15.08842493 24074,6917.873000000001,95.437,541.75,537.725,0.0
53252.0,STARLINK-4132,PAYLOAD,2022-12-24 20:25:32,15.08834979,0.0003204,53.2183,50.2328,21.4664,338.6462,2.1727e-05,5.7e-07,0.0,0 STARLINK-4132,1 53252U 22086L   22358.85107430  .00000057  00000-0  21727-4 0  9998,2 53252  53.2183  50.2328 0003204  21.4664 338.6462 15.08834979 24320,6917.896,95.438,541.977,537.544,0.0
53252.0,STARLINK-4132,PAYLOAD,2022-12-25 12:19:23,15.08836321,0.0003025,53.2185,47.2576,17.9324,342.1774,8.3195e-05,1.036e-05,0.0,0 STARLINK-4132,1 53252U 22086L   22359.51347213  .00001036  00000-0  83195-4 0  9992,2 53252  53.2185  47.2576 0003025  17.9324 342.1774 15.08836321 24427,6917.892,95.438,541.849,537.664,0.0
53252.0,STARLINK-4132,PAYLOAD,2022-12-25 20:16:19,15.08839232,0.0003057,53.2192,45.7712,19.3256,340.7851,8.5177e-05,1.067e-05,0.0,0 STARLINK-4132,1 53252U 22086L   22359.84467003  .00001067  00000-0  85177-4 0  9994,2 53252  53.2192  45.7712 0003057  19.3256 340.7851 15.08839232 24474,6917.8830000000025,95.438,541.863,537.633,0.0
53252.0,STARLINK-4132,PAYLOAD,2022-12-26 02:37:52,15.08838682,0.0003078,53.2192,44.5832,21.6726,338.4396,1.0246e-05,-1.26e-06,0.0,0 STARLINK-4132,1 53252U 22086L   22360.10963447 -.00000126  00000-0  10246-4 0  9999,2 53252  53.2192  44.5832 0003078  21.6726 338.4396 15.08838682 24314,6917.884,95.438,541.879,537.62,0.0
